{
"type": "FeatureCollection",
"name": "report",
"crs": { "type": "name", "properties": { "name": "urn:ogc:def:crs:OGC:1.3:CRS84" } },
"features": [
{ "type": "Feature", "properties": { "parcel_id": "BLR-001", "village": "Koramangala", "map_area_sqm": 1081.5, "verdict": "Match", "csv_parcel_id": "BLR-001", "reason": "Exact ID match; CSV 1080 m² vs map 1081.5 m² (-0.1%, within ±10%); WARNING: 2 CSV rows claim BLR-001", "fill": "#2e7d32", "stroke": "#2e7d32", "fill-opacity": 0.6 }, "geometry": { "type": "Polygon", "coordinates": [ [ [ 77.5946, 12.9716 ], [ 77.5949, 12.9716 ], [ 77.5949, 12.9719 ], [ 77.5946, 12.9719 ], [ 77.5946, 12.9716 ] ] ] } },
{ "type": "Feature", "properties": { "parcel_id": "BLR-002", "village": "Koramangala", "map_area_sqm": 1081.5, "verdict": "Match", "csv_parcel_id": "BLR-002", "reason": "Exact ID match; CSV 1085 m² vs map 1081.5 m² (+0.3%, within ±10%)", "fill": "#2e7d32", "stroke": "#2e7d32", "fill-opacity": 0.6 }, "geometry": { "type": "Polygon", "coordinates": [ [ [ 77.595, 12.9716 ], [ 77.5953, 12.9716 ], [ 77.5953, 12.9719 ], [ 77.595, 12.9719 ], [ 77.595, 12.9716 ] ] ] } },
{ "type": "Feature", "properties": { "parcel_id": "BLR-003", "village": "Koramangala", "map_area_sqm": 1081.5, "verdict": "Match", "csv_parcel_id": "BLR-003", "reason": "Exact ID match; CSV 1075 m² vs map 1081.5 m² (-0.6%, within ±10%)", "fill": "#2e7d32", "stroke": "#2e7d32", "fill-opacity": 0.6 }, "geometry": { "type": "Polygon", "coordinates": [ [ [ 77.5954, 12.9716 ], [ 77.5957, 12.9716 ], [ 77.5957, 12.9719 ], [ 77.5954, 12.9719 ], [ 77.5954, 12.9716 ] ] ] } },
{ "type": "Feature", "properties": { "parcel_id": "BLR-004", "village": "Koramangala", "map_area_sqm": 1081.5, "verdict": "Match", "csv_parcel_id": "BLR-004", "reason": "Exact ID match; CSV 1082 m² vs map 1081.5 m² (+0.0%, within ±10%)", "fill": "#2e7d32", "stroke": "#2e7d32", "fill-opacity": 0.6 }, "geometry": { "type": "Polygon", "coordinates": [ [ [ 77.5958, 12.9716 ], [ 77.5961, 12.9716 ], [ 77.5961, 12.9719 ], [ 77.5958, 12.9719 ], [ 77.5958, 12.9716 ] ] ] } },
{ "type": "Feature", "properties": { "parcel_id": "BLR-005", "village": "Koramangala", "map_area_sqm": 1081.5, "verdict": "Match", "csv_parcel_id": "BLR-005", "reason": "Exact ID match; CSV 1078 m² vs map 1081.5 m² (-0.3%, within ±10%)", "fill": "#2e7d32", "stroke": "#2e7d32", "fill-opacity": 0.6 }, "geometry": { "type": "Polygon", "coordinates": [ [ [ 77.5962, 12.9716 ], [ 77.5965, 12.9716 ], [ 77.5965, 12.9719 ], [ 77.5962, 12.9719 ], [ 77.5962, 12.9716 ] ] ] } },
{ "type": "Feature", "properties": { "parcel_id": "BLR-006", "village": "Koramangala", "map_area_sqm": 1081.5, "verdict": "Match", "csv_parcel_id": "BLR-006", "reason": "Exact ID match; CSV 1090 m² vs map 1081.5 m² (+0.8%, within ±10%)", "fill": "#2e7d32", "stroke": "#2e7d32", "fill-opacity": 0.6 }, "geometry": { "type": "Polygon", "coordinates": [ [ [ 77.5946, 12.972 ], [ 77.5949, 12.972 ], [ 77.5949, 12.9723 ], [ 77.5946, 12.9723 ], [ 77.5946, 12.972 ] ] ] } },
{ "type": "Feature", "properties": { "parcel_id": "BLR-007", "village": "Koramangala", "map_area_sqm": 1081.5, "verdict": "Match", "csv_parcel_id": "BLR-007", "reason": "Exact ID match; CSV 1080 m² vs map 1081.5 m² (-0.1%, within ±10%)", "fill": "#2e7d32", "stroke": "#2e7d32", "fill-opacity": 0.6 }, "geometry": { "type": "Polygon", "coordinates": [ [ [ 77.595, 12.972 ], [ 77.5953, 12.972 ], [ 77.5953, 12.9723 ], [ 77.595, 12.9723 ], [ 77.595, 12.972 ] ] ] } },
{ "type": "Feature", "properties": { "parcel_id": "BLR-008", "village": "Koramangala", "map_area_sqm": 1081.5, "verdict": "Match", "csv_parcel_id": "BLR-008", "reason": "Exact ID match; CSV 1076 m² vs map 1081.5 m² (-0.5%, within ±10%)", "fill": "#2e7d32", "stroke": "#2e7d32", "fill-opacity": 0.6 }, "geometry": { "type": "Polygon", "coordinates": [ [ [ 77.5954, 12.972 ], [ 77.5957, 12.972 ], [ 77.5957, 12.9723 ], [ 77.5954, 12.9723 ], [ 77.5954, 12.972 ] ] ] } },
{ "type": "Feature", "properties": { "parcel_id": "BLR-009", "village": "Koramangala", "map_area_sqm": 1081.5, "verdict": "IdMatchAreaMismatch", "csv_parcel_id": "BLR-009", "reason": "Exact ID match; CSV 1500 m² vs map 1081.5 m² (+38.7%, outside ±10%)", "fill": "#ef6c00", "stroke": "#ef6c00", "fill-opacity": 0.6 }, "geometry": { "type": "Polygon", "coordinates": [ [ [ 77.5958, 12.972 ], [ 77.5961, 12.972 ], [ 77.5961, 12.9723 ], [ 77.5958, 12.9723 ], [ 77.5958, 12.972 ] ] ] } },
{ "type": "Feature", "properties": { "parcel_id": "BLR-010", "village": "Koramangala", "map_area_sqm": 1081.5, "verdict": "IdMatchAreaMismatch", "csv_parcel_id": "BLR-010", "reason": "Exact ID match; CSV 800 m² vs map 1081.5 m² (-26.0%, outside ±10%)", "fill": "#ef6c00", "stroke": "#ef6c00", "fill-opacity": 0.6 }, "geometry": { "type": "Polygon", "coordinates": [ [ [ 77.5962, 12.972 ], [ 77.5965, 12.972 ], [ 77.5965, 12.9723 ], [ 77.5962, 12.9723 ], [ 77.5962, 12.972 ] ] ] } },
{ "type": "Feature", "properties": { "parcel_id": "BLR-011", "village": "Koramangala", "map_area_sqm": 1081.5, "verdict": "IdMatchAreaMismatch", "csv_parcel_id": "BLR-011", "reason": "Exact ID match; CSV 2000 m² vs map 1081.5 m² (+84.9%, outside ±10%)", "fill": "#ef6c00", "stroke": "#ef6c00", "fill-opacity": 0.6 }, "geometry": { "type": "Polygon", "coordinates": [ [ [ 77.5946, 12.9724 ], [ 77.5949, 12.9724 ], [ 77.5949, 12.9727 ], [ 77.5946, 12.9727 ], [ 77.5946, 12.9724 ] ] ] } },
{ "type": "Feature", "properties": { "parcel_id": "BLR-012", "village": "Koramangala", "map_area_sqm": 1081.5, "verdict": "NoCsvRecord", "csv_parcel_id": "", "reason": "No CSV row matched this polygon", "fill": "#9e9e9e", "stroke": "#9e9e9e", "fill-opacity": 0.6 }, "geometry": { "type": "Polygon", "coordinates": [ [ [ 77.595, 12.9724 ], [ 77.5953, 12.9724 ], [ 77.5953, 12.9727 ], [ 77.595, 12.9727 ], [ 77.595, 12.9724 ] ] ] } },
{ "type": "Feature", "properties": { "parcel_id": "BLR-013", "village": "Koramangala", "map_area_sqm": 1081.5, "verdict": "FuzzyMatch", "csv_parcel_id": "BLR-O13", "reason": "Fuzzy ID match to BLR-013 (edit distance 1); CSV 1082 m² vs map 1081.5 m² (+0.0%, within ±10%); needs human review", "fill": "#f9a825", "stroke": "#f9a825", "fill-opacity": 0.6 }, "geometry": { "type": "Polygon", "coordinates": [ [ [ 77.5954, 12.9724 ], [ 77.5957, 12.9724 ], [ 77.5957, 12.9727 ], [ 77.5954, 12.9727 ], [ 77.5954, 12.9724 ] ] ] } },
{ "type": "Feature", "properties": { "parcel_id": "BLR-014", "village": "Koramangala", "map_area_sqm": 1081.5, "verdict": "FuzzyMatch", "csv_parcel_id": "BLR-14", "reason": "Fuzzy ID match to BLR-014 (edit distance 1); CSV 1078 m² vs map 1081.5 m² (-0.3%, within ±10%); needs human review", "fill": "#f9a825", "stroke": "#f9a825", "fill-opacity": 0.6 }, "geometry": { "type": "Polygon", "coordinates": [ [ [ 77.5958, 12.9724 ], [ 77.5961, 12.9724 ], [ 77.5961, 12.9727 ], [ 77.5958, 12.9727 ], [ 77.5958, 12.9724 ] ] ] } },
{ "type": "Feature", "properties": { "parcel_id": "BLR-015", "village": "Koramangala", "map_area_sqm": 1081.5, "verdict": "FuzzyMatch", "csv_parcel_id": "BLR-0155", "reason": "Fuzzy ID match to BLR-015 (edit distance 1); CSV 1085 m² vs map 1081.5 m² (+0.3%, within ±10%); needs human review", "fill": "#f9a825", "stroke": "#f9a825", "fill-opacity": 0.6 }, "geometry": { "type": "Polygon", "coordinates": [ [ [ 77.5962, 12.9724 ], [ 77.5965, 12.9724 ], [ 77.5965, 12.9727 ], [ 77.5962, 12.9727 ], [ 77.5962, 12.9724 ] ] ] } },
{ "type": "Feature", "properties": { "parcel_id": "BLR-016", "village": "Koramangala", "map_area_sqm": 1081.5, "verdict": "IdMatchAreaMismatch", "csv_parcel_id": "BLR-016", "reason": "Exact ID match; area_sqm missing or non-numeric in CSV, cannot verify", "fill": "#ef6c00", "stroke": "#ef6c00", "fill-opacity": 0.6 }, "geometry": { "type": "Polygon", "coordinates": [ [ [ 77.5946, 12.9728 ], [ 77.5949, 12.9728 ], [ 77.5949, 12.9731 ], [ 77.5946, 12.9731 ], [ 77.5946, 12.9728 ] ] ] } },
{ "type": "Feature", "properties": { "parcel_id": "BLR-017", "village": "Koramangala", "map_area_sqm": 1081.5, "verdict": "Match", "csv_parcel_id": "BLR-017", "reason": "Exact ID match; CSV 1080 m² vs map 1081.5 m² (-0.1%, within ±10%)", "fill": "#2e7d32", "stroke": "#2e7d32", "fill-opacity": 0.6 }, "geometry": { "type": "Polygon", "coordinates": [ [ [ 77.595, 12.9728 ], [ 77.5953, 12.9728 ], [ 77.5953, 12.9731 ], [ 77.595, 12.9731 ], [ 77.595, 12.9728 ] ] ] } },
{ "type": "Feature", "properties": { "parcel_id": "BLR-018", "village": "Koramangala", "map_area_sqm": 1081.5, "verdict": "Match", "csv_parcel_id": "BLR-018", "reason": "Exact ID match; CSV 1076 m² vs map 1081.5 m² (-0.5%, within ±10%)", "fill": "#2e7d32", "stroke": "#2e7d32", "fill-opacity": 0.6 }, "geometry": { "type": "Polygon", "coordinates": [ [ [ 77.5954, 12.9728 ], [ 77.5957, 12.9728 ], [ 77.5957, 12.9731 ], [ 77.5954, 12.9731 ], [ 77.5954, 12.9728 ] ] ] } },
{ "type": "Feature", "properties": { "parcel_id": "BLR-019", "village": "Koramangala", "map_area_sqm": 1081.5, "verdict": "Match", "csv_parcel_id": "BLR-019", "reason": "Exact ID match; CSV 1088 m² vs map 1081.5 m² (+0.6%, within ±10%)", "fill": "#2e7d32", "stroke": "#2e7d32", "fill-opacity": 0.6 }, "geometry": { "type": "Polygon", "coordinates": [ [ [ 77.5958, 12.9728 ], [ 77.5961, 12.9728 ], [ 77.5961, 12.9731 ], [ 77.5958, 12.9731 ], [ 77.5958, 12.9728 ] ] ] } },
{ "type": "Feature", "properties": { "parcel_id": "BLR-020", "village": "Koramangala", "map_area_sqm": 1081.5, "verdict": "Match", "csv_parcel_id": "BLR-020", "reason": "Exact ID match; CSV 1082 m² vs map 1081.5 m² (+0.0%, within ±10%)", "fill": "#2e7d32", "stroke": "#2e7d32", "fill-opacity": 0.6 }, "geometry": { "type": "Polygon", "coordinates": [ [ [ 77.5962, 12.9728 ], [ 77.5965, 12.9728 ], [ 77.5965, 12.9731 ], [ 77.5962, 12.9731 ], [ 77.5962, 12.9728 ] ] ] } },
{ "type": "Feature", "properties": { "parcel_id": "BLR-021", "village": "Indiranagar", "map_area_sqm": 2163.0, "verdict": "Match", "csv_parcel_id": "BLR-021", "reason": "Exact ID match; CSV 2160 m² vs map 2163 m² (-0.1%, within ±10%)", "fill": "#2e7d32", "stroke": "#2e7d32", "fill-opacity": 0.6 }, "geometry": { "type": "Polygon", "coordinates": [ [ [ 77.5946, 12.9736 ], [ 77.5952, 12.9736 ], [ 77.5952, 12.9739 ], [ 77.5946, 12.9739 ], [ 77.5946, 12.9736 ] ] ] } },
{ "type": "Feature", "properties": { "parcel_id": "BLR-022", "village": "Indiranagar", "map_area_sqm": 2163.0, "verdict": "Match", "csv_parcel_id": "BLR-022", "reason": "Exact ID match; CSV 2155 m² vs map 2163 m² (-0.4%, within ±10%)", "fill": "#2e7d32", "stroke": "#2e7d32", "fill-opacity": 0.6 }, "geometry": { "type": "Polygon", "coordinates": [ [ [ 77.5954, 12.9736 ], [ 77.596, 12.9736 ], [ 77.596, 12.9739 ], [ 77.5954, 12.9739 ], [ 77.5954, 12.9736 ] ] ] } },
{ "type": "Feature", "properties": { "parcel_id": "BLR-023", "village": "Indiranagar", "map_area_sqm": 2163.0, "verdict": "IdMatchAreaMismatch", "csv_parcel_id": "BLR-023", "reason": "Exact ID match; CSV 1000 m² vs map 2163 m² (-53.8%, outside ±10%)", "fill": "#ef6c00", "stroke": "#ef6c00", "fill-opacity": 0.6 }, "geometry": { "type": "Polygon", "coordinates": [ [ [ 77.5962, 12.9736 ], [ 77.5968, 12.9736 ], [ 77.5968, 12.9739 ], [ 77.5962, 12.9739 ], [ 77.5962, 12.9736 ] ] ] } },
{ "type": "Feature", "properties": { "parcel_id": "BLR-024", "village": "Indiranagar", "map_area_sqm": 2163.0, "verdict": "IdMatchAreaMismatch", "csv_parcel_id": "BLR-024", "reason": "Exact ID match; area_sqm missing or non-numeric in CSV, cannot verify", "fill": "#ef6c00", "stroke": "#ef6c00", "fill-opacity": 0.6 }, "geometry": { "type": "Polygon", "coordinates": [ [ [ 77.597, 12.9736 ], [ 77.5976, 12.9736 ], [ 77.5976, 12.9739 ], [ 77.597, 12.9739 ], [ 77.597, 12.9736 ] ] ] } },
{ "type": "Feature", "properties": { "parcel_id": "BLR-025", "village": "Indiranagar", "map_area_sqm": 2163.1, "verdict": "NoCsvRecord", "csv_parcel_id": "", "reason": "No CSV row matched this polygon", "fill": "#9e9e9e", "stroke": "#9e9e9e", "fill-opacity": 0.6 }, "geometry": { "type": "Polygon", "coordinates": [ [ [ 77.5978, 12.9736 ], [ 77.5984, 12.9736 ], [ 77.5984, 12.9739 ], [ 77.5978, 12.9739 ], [ 77.5978, 12.9736 ] ] ] } },
{ "type": "Feature", "properties": { "parcel_id": "BLR-026", "village": "Indiranagar", "map_area_sqm": 2163.0, "verdict": "Match", "csv_parcel_id": "BLR-026", "reason": "Exact ID match; CSV 2170 m² vs map 2163 m² (+0.3%, within ±10%)", "fill": "#2e7d32", "stroke": "#2e7d32", "fill-opacity": 0.6 }, "geometry": { "type": "Polygon", "coordinates": [ [ [ 77.5946, 12.9742 ], [ 77.5949, 12.9742 ], [ 77.5949, 12.9748 ], [ 77.5946, 12.9748 ], [ 77.5946, 12.9742 ] ] ] } },
{ "type": "Feature", "properties": { "parcel_id": "BLR-027", "village": "Indiranagar", "map_area_sqm": 2163.0, "verdict": "Match", "csv_parcel_id": "BLR-027", "reason": "Exact ID match; CSV 2158 m² vs map 2163 m² (-0.2%, within ±10%)", "fill": "#2e7d32", "stroke": "#2e7d32", "fill-opacity": 0.6 }, "geometry": { "type": "Polygon", "coordinates": [ [ [ 77.5951, 12.9742 ], [ 77.5954, 12.9742 ], [ 77.5954, 12.9748 ], [ 77.5951, 12.9748 ], [ 77.5951, 12.9742 ] ] ] } },
{ "type": "Feature", "properties": { "parcel_id": "BLR-028", "village": "Indiranagar", "map_area_sqm": 2163.0, "verdict": "Match", "csv_parcel_id": "BLR-028", "reason": "Exact ID match; CSV 2160 m² vs map 2163 m² (-0.1%, within ±10%)", "fill": "#2e7d32", "stroke": "#2e7d32", "fill-opacity": 0.6 }, "geometry": { "type": "Polygon", "coordinates": [ [ [ 77.5956, 12.9742 ], [ 77.5959, 12.9742 ], [ 77.5959, 12.9748 ], [ 77.5956, 12.9748 ], [ 77.5956, 12.9742 ] ] ] } },
{ "type": "Feature", "properties": { "parcel_id": "BLR-029", "village": "Indiranagar", "map_area_sqm": 3785.3, "verdict": "Match", "csv_parcel_id": "BLR-029", "reason": "Exact ID match; CSV 3790 m² vs map 3785.3 m² (+0.1%, within ±10%)", "fill": "#2e7d32", "stroke": "#2e7d32", "fill-opacity": 0.6 }, "geometry": { "type": "Polygon", "coordinates": [ [ [ 77.5961, 12.9742 ], [ 77.5967, 12.9742 ], [ 77.5967, 12.9745 ], [ 77.5964, 12.9748 ], [ 77.5961, 12.9748 ], [ 77.5961, 12.9742 ] ] ] } }
]
}
